NORAD_CAT_ID,OBJECT_NAME,OBJECT_TYPE,EPOCH,MEAN_MOTION,ECCENTRICITY,INCLINATION,RA_OF_ASC_NODE,ARG_OF_PERICENTER,MEAN_ANOMALY,BSTAR,MEAN_MOTION_DOT,MEAN_MOTION_DDOT,TLE_LINE0,TLE_LINE1,TLE_LINE2,SEMIMAJOR_AXIS,PERIOD,APOGEE,PERIGEE,DECAYED
53038.0,STARLINK-4156,PAYLOAD,2023-01-04 22:35:57,15.08853056,0.0002138,53.2169,240.4357,42.1519,317.9637,0.0002473,3.651e-05,0.0,0 STARLINK-4156,1 53038U 22076BE  23004.94164123  .00003651  00000-0  24730-3 0  9999,2 53038  53.2169 240.4357 0002138  42.1519 317.9637 15.08853056 28500,6917.84,95.437,541.185,538.226,0.0
53038.0,STARLINK-4156,PAYLOAD,2023-01-05 01:46:43,15.08852468,0.0002165999999999,53.2171,239.8411,38.8701,321.2447,0.00015406,2.165e-05,0.0,0 STARLINK-4156,1 53038U 22076BE  23005.07412015  .00002165  00000-0  15406-3 0  9999,2 53038  53.2171 239.8411 0002166  38.8701 321.2447 15.08852468 28066,6917.842,95.437,541.206,538.2090000000002,0.0
53038.0,STARLINK-4156,PAYLOAD,2023-01-05 16:05:11,15.08855022,0.0002016,53.217,237.1649,38.8051,321.3085,0.00019052,2.746e-05,0.0,0 STARLINK-4156,1 53038U 22076BE  23005.67027335  .00002746  00000-0  19052-3 0  9998,2 53038  53.2170 237.1649 0002016  38.8051 321.3085 15.08855022 28159,6917.834,95.437,541.094,538.305,0.0
53038.0,STARLINK-4156,PAYLOAD,2023-01-06 14:20:37,15.08831144,0.0001898,53.2166,233.0009,42.6682,317.4457,-8.470299999999999e-05,-1.636e-05,0.0,0 STARLINK-4156,1 53038U 22076BE  23006.59765097 -.00001636  00000-0 -84703-4 0  9999,2 53038  53.2166 233.0009 0001898  42.6682 317.4457 15.08831144 28753,6917.906999999998,95.438,541.085,538.4590000000002,0.0
53038.0,STARLINK-4156,PAYLOAD,2023-01-06 15:56:00,15.0883484,0.0002141,53.2174,232.7038,39.0976,321.017,-6.5922e-05,-1.337e-05,0.0,0 STARLINK-4156,1 53038U 22076BE  23006.66388931 -.00001337  00000-0 -65922-4 0  9995,2 53038  53.2174 232.7038 0002141  39.0976 321.0170 15.08834840 28308,6917.896,95.438,541.242,538.28,0.0
53038.0,STARLINK-4156,PAYLOAD,2023-01-06 23:52:55,15.08838496,0.0002133,53.2176,231.2171,39.4539,320.6609,-2.3211e-05,-6.58e-06,0.0,0 STARLINK-4156,1 53038U 22076BE  23006.99508646 -.00000658  00000-0 -23211-4 0  9998,2 53038  53.2176 231.2171 0002133  39.4539 320.6609 15.08838496 28811,6917.885,95.438,541.226,538.274,0.0
53038.0,STARLINK-4156,PAYLOAD,2023-01-07 15:46:46,15.08839984,0.0002114,53.2172,228.243,40.3845,319.7304,1.7153e-05,-1.5e-07,0.0,0 STARLINK-4156,1 53038U 22076BE  23007.65748543 -.00000015  00000-0  17153-4 0  9998,2 53038  53.2172 228.2430 0002114  40.3845 319.7304 15.08839984 28455,6917.88,95.438,541.2080000000002,538.283,0.0
53038.0,STARLINK-4156,PAYLOAD,2023-01-08 14:02:11,15.0882953,0.0002093,53.2178,224.0809,42.2265,317.8888,0.00015753,2.219e-05,0.0,0 STARLINK-4156,1 53038U 22076BE  23008.58485519  .00002219  00000-0  15753-3 0  9992,2 53038  53.2178 224.0809 0002093  42.2265 317.8888 15.08829530 29057,6917.911999999998,95.438,541.225,538.3290000000002,0.0
53038.0,STARLINK-4156,PAYLOAD,2023-01-08 20:23:43,15.08836512,0.0002125,53.2178,222.8919,42.2339,317.8816,0.0001785,2.554e-05,0.0,0 STARLINK-4156,1 53038U 22076BE  23008.84981185  .00002554  00000-0  17850-3 0  9993,2 53038  53.2178 222.8919 0002125  42.2339 317.8816 15.08836512 28635,6917.891,95.438,541.226,538.286,0.0
53038.0,STARLINK-4156,PAYLOAD,2023-01-08 23:34:29,15.08842147,0.0002203,53.2162,222.2969,43.6621,316.4545,0.00022416,3.281e-05,0.0,0 STARLINK-4156,1 53038U 22076BE  23008.98229084  .00003281  00000-0  22416-3 0  9993,2 53038  53.2162 222.2969 0002203  43.6621 316.4545 15.08842147 29112,6917.874,95.437,541.263,538.215,0.0
53038.0,STARLINK-4156,PAYLOAD,2023-01-09 07:31:25,15.08847254,0.0002279,53.2165,220.8105,44.0459,316.0715,0.00025681,3.802e-05,0.0,0 STARLINK-4156,1 53038U 22076BE  23009.31348839  .00003802  00000-0  25681-3 0  9997,2 53038  53.2165 220.8105 0002279  44.0459 316.0715 15.08847254 28701,6917.858,95.437,541.3,538.1469999999998,0.0
53038.0,STARLINK-4156,PAYLOAD,2023-01-09 13:52:58,15.08838422,0.0002612,53.2162,219.6233,32.2967,327.8185,0.00029737,4.447e-05,0.0,0 STARLINK-4156,1 53038U 22076BE  23009.57845377  .00004447  00000-0  29737-3 0  9996,2 53038  53.2162 219.6233 0002612  32.2967 327.8185 15.08838422 28742,6917.885,95.438,541.557,537.943,0.0
53038.0,STARLINK-4156,PAYLOAD,2023-01-10 07:22:12,15.08840524,0.0002611,53.2167,216.3524,48.6416,311.4801,0.00013838,1.915e-05,0.0,0 STARLINK-4156,1 53038U 22076BE  23010.30709442  .00001915  00000-0  13838-3 0  9993,2 53038  53.2167 216.3524 0002611  48.6416 311.4801 15.08840524 29317,6917.879,95.438,541.55,537.938,0.0
53038.0,STARLINK-4156,PAYLOAD,2023-01-10 08:57:35,15.088429500000002,0.0002437,53.2159,216.0532,50.755,309.3658,0.00014008,1.942e-05,0.0,0 STARLINK-4156,1 53038U 22076BE  23010.37333189  .00001942  00000-0  14008-3 0  9991,2 53038  53.2159 216.0532 0002437  50.7550 309.3658 15.08842950 28863,6917.871,95.437,541.422,538.05,0.0
53038.0,STARLINK-4156,PAYLOAD,2023-01-10 20:05:17,15.08838898,0.0002432,53.2156,213.9712,48.4491,311.6709,2.3997e-05,9.4e-07,0.0,0 STARLINK-4156,1 53038U 22076BE  23010.83701362  .00000094  00000-0  23997-4 0  9999,2 53038  53.2156 213.9712 0002432  48.4491 311.6709 15.08838898 28936,6917.884,95.438,541.431,538.066,0.0
53038.0,STARLINK-4156,PAYLOAD,2023-01-11 13:34:33,15.08832612,0.0002307,53.2168,210.7005,47.6908,312.4279,4.5227e-05,4.31e-06,0.0,0 STARLINK-4156,1 53038U 22076BE  23011.56565977  .00000431  00000-0  45227-4 0  9995,2 53038  53.2168 210.7005 0002307  47.6908 312.4279 15.08832612 29507,6917.903,95.438,541.364,538.172,0.0
53038.0,STARLINK-4156,PAYLOAD,2023-01-11 19:56:05,15.08834794,0.0002271,53.2168,209.5106,47.6328,312.4856,6.3173e-05,7.17e-06,0.0,0 STARLINK-4156,1 53038U 22076BE  23011.83061861  .00000717  00000-0  63173-4 0  9995,2 53038  53.2168 209.5106 0002271  47.6328 312.4856 15.08834794 29088,6917.896,95.438,541.332,538.19,0.0
53038.0,STARLINK-4156,PAYLOAD,2023-01-12 19:46:52,15.0883685,0.0002333,53.2168,205.0498,47.8464,312.2726,4.5689e-05,4.39e-06,0.0,0 STARLINK-4156,1 53038U 22076BE  23012.82422071  .00000439  00000-0  45689-4 0  9992,2 53038  53.2168 205.0498 0002333  47.8464 312.2726 15.08836850 29691,6917.89,95.438,541.369,538.141,0.0
53038.0,STARLINK-4156,PAYLOAD,2023-01-13 05:19:11,15.08835455,0.0002319999999999,53.2167,203.2657,47.9038,312.2151,0.00010133,1.325e-05,0.0,0 STARLINK-4156,1 53038U 22076BE  23013.22166270  .00001325  00000-0  10133-3 0  9993,2 53038  53.2167 203.2657 0002320  47.9038 312.2151 15.08835455 29299,6917.894,95.438,541.364,538.154,0.0
53038.0,STARLINK-4156,PAYLOAD,2023-01-13 19:37:39,15.08838584,0.0002275999999999,53.217,200.5902,48.7373,311.3815,0.00012914,1.768e-05,0.0,0 STARLINK-4156,1 53038U 22076BE  23013.81782236  .00001768  00000-0  12914-3 0  9994,2 53038  53.2170 200.5902 0002276  48.7373 311.3815 15.08838584 29380,6917.885,95.438,541.3240000000001,538.175,0.0
53038.0,STARLINK-4156,PAYLOAD,2023-01-14 05:09:58,15.08837233,0.0002325,53.2162,198.8058,51.3193,308.8007,9.4987e-05,1.224e-05,0.0,0 STARLINK-4156,1 53038U 22076BE  23014.21526525  .00001224  00000-0  94987-4 0  9994,2 53038  53.2162 198.8058 0002325  51.3193 308.8007 15.08837233 29909,6917.889,95.438,541.362,538.145,0.0
53038.0,STARLINK-4156,PAYLOAD,2023-01-14 21:03:47,15.08871806,0.0002065,53.218,195.8318,40.5446,319.57,0.00037271,5.654e-05,0.0,0 STARLINK-4156,1 53038U 22076BE  23014.87763274  .00005654  00000-0  37271-3 0  9993,2 53038  53.2180 195.8318 0002065  40.5446 319.5700 15.08871806 30003,6917.783,95.436,541.077,538.22,0.0
53038.0,STARLINK-4156,PAYLOAD,2023-01-15 11:22:18,15.08827753,0.0002268,53.2164,193.1556,56.4993,303.6216,0.00019646,2.839e-05,0.0,0 STARLINK-4156,1 53038U 22076BE  23015.47383080  .00002839  00000-0  19646-3 0  9991,2 53038  53.2164 193.1556 0002268  56.4993 303.6216 15.08827753 30095,6917.918000000001,95.438,541.352,538.214,0.0
53038.0,STARLINK-4156,PAYLOAD,2023-01-15 19:19:14,15.08840711,0.0002198999999999,53.2167,191.6688,55.6257,304.4943,3.2788e-05,2.34e-06,0.0,0 STARLINK-4156,1 53038U 22076BE  23015.80502604  .00000234  00000-0  32788-4 0  9993,2 53038  53.2167 191.6688 0002199  55.6257 304.4943 15.08840711 30145,6917.878000000001,95.438,541.264,538.222,0.0
53038.0,STARLINK-4156,PAYLOAD,2023-01-16 11:13:05,15.08840644,0.0002208,53.2169,188.6954,56.1962,303.92400000000004,8.3911e-05,1.047e-05,0.0,0 STARLINK-4156,1 53038U 22076BE  23016.46742519  .00001047  00000-0  83911-4 0  9994,2 53038  53.2169 188.6954 0002208  56.1962 303.9240 15.08840644 29786,6917.878000000001,95.438,541.271,538.216,0.0
53038.0,STARLINK-4156,PAYLOAD,2023-01-16 17:34:37,15.08846468,0.0002273,53.2171,187.5061,57.33,302.7911,8.6614e-05,1.091e-05,0.0,0 STARLINK-4156,1 53038U 22076BE  23016.73238121  .00001091  00000-0  86614-4 0  9995,2 53038  53.2171 187.5061 0002273  57.3300 302.7911 15.08846468 29824,6917.861,95.437,541.298,538.153,0.0
53038.0,STARLINK-4156,PAYLOAD,2023-01-17 04:42:19,15.08845357,0.0002116,53.2174,185.4246,58.0137,302.106,0.00015396,2.163e-05,0.0,0 STARLINK-4156,1 53038U 22076BE  23017.19605858  .00002163  00000-0  15396-3 0  9990,2 53038  53.2174 185.4246 0002116  58.0137 302.1060 15.08845357 30356,6917.8640000000005,95.437,541.193,538.265,0.0
53038.0,STARLINK-4156,PAYLOAD,2023-01-17 20:36:09,15.08856483,0.000212,53.2174,182.4507,59.0948,301.0253,0.00019051,2.746e-05,0.0,0 STARLINK-4156,1 53038U 22076BE  23017.85844755  .00002746  00000-0  19051-3 0  9993,2 53038  53.2174 182.4507 0002120  59.0948 301.0253 15.08856483 30454,6917.83,95.437,541.1619999999999,538.2280000000001,0.0
53038.0,STARLINK-4156,PAYLOAD,2023-01-18 14:05:25,15.08835564,0.0002063,53.2176,179.1798,76.7005,283.4217,-3.5559e-06,-3.45e-06,0.0,0 STARLINK-4156,1 53038U 22076BE  23018.58710588 -.00000345  00000-0 -35559-5 0  9998,2 53038  53.2176 179.1798 0002063  76.7005 283.4217 15.08835564 30109,6917.894,95.438,541.186,538.332,0.0
